<?xml version="1.0" encoding="UTF-8"?>
<ndm xmlns:xsi="http://www.w3.org/2001/XMLSchema-instance" xsi:noNamespaceSchemaLocation="https://sanaregistry.org/r/ndmxml_unqualified/ndmxml-2.0.0-master-2.0.xsd">
<omm id="CCSDS_OMM_VERS" version="2.0">
<header><CREATION_DATE/><ORIGINATOR/></header><body><segment><metadata><OBJECT_NAME>ORBCOMM FM05</OBJECT_NAME><OBJECT_ID>1997-084F</OBJECT_ID><CENTER_NAME>EARTH</CENTER_NAME><REF_FRAME>TEME</REF_FRAME><TIME_SYSTEM>UTC</TIME_SYSTEM><MEAN_ELEMENT_THEORY>SGP4</MEAN_ELEMENT_THEORY></metadata><data><meanElements><EPOCH>2024-09-05T10:27:21.154464</EPOCH><MEAN_MOTION>14.43540678</MEAN_MOTION><ECCENTRICITY>.0004495</ECCENTRICITY><INCLINATION>45.0145</INCLINATION><RA_OF_ASC_NODE>293.0964</RA_OF_ASC_NODE><ARG_OF_PERICENTER>256.7628</ARG_OF_PERICENTER><MEAN_ANOMALY>103.2722</MEAN_ANOMALY></meanElements><tleParameters><EPHEMERIS_TYPE>0</EPHEMERIS_TYPE><CLASSIFICATION_TYPE>U</CLASSIFICATION_TYPE><NORAD_CAT_ID>25117</NORAD_CAT_ID><ELEMENT_SET_NO>999</ELEMENT_SET_NO><REV_AT_EPOCH>39942</REV_AT_EPOCH><BSTAR>.18776E-2</BSTAR><MEAN_MOTION_DOT>.628E-4</MEAN_MOTION_DOT><MEAN_MOTION_DDOT>0</MEAN_MOTION_DDOT></tleParameters></data></segment></body></omm>
<omm id="CCSDS_OMM_VERS" version="2.0">
<header><CREATION_DATE/><ORIGINATOR/></header><body><segment><metadata><OBJECT_NAME>ORBCOMM FM06</OBJECT_NAME><OBJECT_ID>1997-084G</OBJECT_ID><CENTER_NAME>EARTH</CENTER_NAME><REF_FRAME>TEME</REF_FRAME><TIME_SYSTEM>UTC</TIME_SYSTEM><MEAN_ELEMENT_THEORY>SGP4</MEAN_ELEMENT_THEORY></metadata><data><meanElements><EPOCH>2024-09-05T13:10:10.035264</EPOCH><MEAN_MOTION>14.43651246</MEAN_MOTION><ECCENTRICITY>.0003939</ECCENTRICITY><INCLINATION>45.0137</INCLINATION><RA_OF_ASC_NODE>292.6425</RA_OF_ASC_NODE><ARG_OF_PERICENTER>267.8181</ARG_OF_PERICENTER><MEAN_ANOMALY>208.3147</MEAN_ANOMALY></meanElements><tleParameters><EPHEMERIS_TYPE>0</EPHEMERIS_TYPE><CLASSIFICATION_TYPE>U</CLASSIFICATION_TYPE><NORAD_CAT_ID>25118</NORAD_CAT_ID><ELEMENT_SET_NO>999</ELEMENT_SET_NO><REV_AT_EPOCH>40035</REV_AT_EPOCH><BSTAR>.1981E-2</BSTAR><MEAN_MOTION_DOT>.665E-4</MEAN_MOTION_DOT><MEAN_MOTION_DDOT>0</MEAN_MOTION_DDOT></tleParameters></data></segment></body></omm>
<omm id="CCSDS_OMM_VERS" version="2.0">
<header><CREATION_DATE/><ORIGINATOR/></header><body><segment><metadata><OBJECT_NAME>ORBCOMM FM07</OBJECT_NAME><OBJECT_ID>1997-084H</OBJECT_ID><CENTER_NAME>EARTH</CENTER_NAME><REF_FRAME>TEME</REF_FRAME><TIME_SYSTEM>UTC</TIME_SYSTEM><MEAN_ELEMENT_THEORY>SGP4</MEAN_ELEMENT_THEORY></metadata><data><meanElements><EPOCH>2024-09-05T14:16:18.339744</EPOCH><MEAN_MOTION>14.43548808</MEAN_MOTION><ECCENTRICITY>.0004906</ECCENTRICITY><INCLINATION>45.0134</INCLINATION><RA_OF_ASC_NODE>293.0413</RA_OF_ASC_NODE><ARG_OF_PERICENTER>248.5660</ARG_OF_PERICENTER><MEAN_ANOMALY>111.4668</MEAN_ANOMALY></meanElements><tleParameters><EPHEMERIS_TYPE>0</EPHEMERIS_TYPE><CLASSIFICATION_TYPE>U</CLASSIFICATION_TYPE><NORAD_CAT_ID>25119</NORAD_CAT_ID><ELEMENT_SET_NO>999</ELEMENT_SET_NO><REV_AT_EPOCH>40037</REV_AT_EPOCH><BSTAR>.18332E-2</BSTAR><MEAN_MOTION_DOT>.613E-4</MEAN_MOTION_DOT><MEAN_MOTION_DDOT>0</MEAN_MOTION_DDOT></tleParameters></data></segment></body></omm>
<omm id="CCSDS_OMM_VERS" version="2.0">
<header><CREATION_DATE/><ORIGINATOR/></header><body><segment><metadata><OBJECT_NAME>ORBCOMM FM03</OBJECT_NAME><OBJECT_ID>1998-007B</OBJECT_ID><CENTER_NAME>EARTH</CENTER_NAME><REF_FRAME>TEME</REF_FRAME><TIME_SYSTEM>UTC</TIME_SYSTEM><MEAN_ELEMENT_THEORY>SGP4</MEAN_ELEMENT_THEORY></metadata><data><meanElements><EPOCH>2024-09-05T19:40:00.772032</EPOCH><MEAN_MOTION>14.32807794</MEAN_MOTION><ECCENTRICITY>.004581</ECCENTRICITY><INCLINATION>107.9723</INCLINATION><RA_OF_ASC_NODE>272.0357</RA_OF_ASC_NODE><ARG_OF_PERICENTER>23.6708</ARG_OF_PERICENTER><MEAN_ANOMALY>336.6525</MEAN_ANOMALY></meanElements><tleParameters><EPHEMERIS_TYPE>0</EPHEMERIS_TYPE><CLASSIFICATION_TYPE>U</CLASSIFICATION_TYPE><NORAD_CAT_ID>25158</NORAD_CAT_ID><ELEMENT_SET_NO>999</ELEMENT_SET_NO><REV_AT_EPOCH>38342</REV_AT_EPOCH><BSTAR>.17579E-2</BSTAR><MEAN_MOTION_DOT>.473E-4</MEAN_MOTION_DOT><MEAN_MOTION_DDOT>0</MEAN_MOTION_DDOT></tleParameters></data></segment></body></omm>
<omm id="CCSDS_OMM_VERS" version="2.0">
<header><CREATION_DATE/><ORIGINATOR/></header><body><segment><metadata><OBJECT_NAME>ORBCOMM FM04</OBJECT_NAME><OBJECT_ID>1998-007C</OBJECT_ID><CENTER_NAME>EARTH</CENTER_NAME><REF_FRAME>TEME</REF_FRAME><TIME_SYSTEM>UTC</TIME_SYSTEM><MEAN_ELEMENT_THEORY>SGP4</MEAN_ELEMENT_THEORY></metadata><data><meanElements><EPOCH>2024-09-05T20:32:14.817984</EPOCH><MEAN_MOTION>14.33078237</MEAN_MOTION><ECCENTRICITY>.0041453</ECCENTRICITY><INCLINATION>107.9707</INCLINATION><RA_OF_ASC_NODE>275.1316</RA_OF_ASC_NODE><ARG_OF_PERICENTER>20.9726</ARG_OF_PERICENTER><MEAN_ANOMALY>339.3102</MEAN_ANOMALY></meanElements><tleParameters><EPHEMERIS_TYPE>0</EPHEMERIS_TYPE><CLASSIFICATION_TYPE>U</CLASSIFICATION_TYPE><NORAD_CAT_ID>25159</NORAD_CAT_ID><ELEMENT_SET_NO>999</ELEMENT_SET_NO><REV_AT_EPOCH>38357</REV_AT_EPOCH><BSTAR>.17928E-2</BSTAR><MEAN_MOTION_DOT>.4843E-4</MEAN_MOTION_DOT><MEAN_MOTION_DDOT>0</MEAN_MOTION_DDOT></tleParameters></data></segment></body></omm>
<omm id="CCSDS_OMM_VERS" version="2.0">
<header><CREATION_DATE/><ORIGINATOR/></header><body><segment><metadata><OBJECT_NAME>ORBCOMM FM18</OBJECT_NAME><OBJECT_ID>1998-046B</OBJECT_ID><CENTER_NAME>EARTH</CENTER_NAME><REF_FRAME>TEME</REF_FRAME><TIME_SYSTEM>UTC</TIME_SYSTEM><MEAN_ELEMENT_THEORY>SGP4</MEAN_ELEMENT_THEORY></metadata><data><meanElements><EPOCH>2024-09-05T19:23:47.074272</EPOCH><MEAN_MOTION>14.36596988</MEAN_MOTION><ECCENTRICITY>.0003665</ECCENTRICITY><INCLINATION>44.9921</INCLINATION><RA_OF_ASC_NODE>82.9721</RA_OF_ASC_NODE><ARG_OF_PERICENTER>278.4178</ARG_OF_PERICENTER><MEAN_ANOMALY>81.6253</MEAN_ANOMALY></meanElements><tleParameters><EPHEMERIS_TYPE>0</EPHEMERIS_TYPE><CLASSIFICATION_TYPE>U</CLASSIFICATION_TYPE><NORAD_CAT_ID>25414</NORAD_CAT_ID><ELEMENT_SET_NO>999</ELEMENT_SET_NO><REV_AT_EPOCH>36349</REV_AT_EPOCH><BSTAR>.19514E-2</BSTAR><MEAN_MOTION_DOT>.5654E-4</MEAN_MOTION_DOT><MEAN_MOTION_DDOT>0</MEAN_MOTION_DDOT></tleParameters></data></segment></body></omm>
<omm id="CCSDS_OMM_VERS" version="2.0">
<header><CREATION_DATE/><ORIGINATOR/></header><body><segment><metadata><OBJECT_NAME>ORBCOMM FM19</OBJECT_NAME><OBJECT_ID>1998-046C</OBJECT_ID><CENTER_NAME>EARTH</CENTER_NAME><REF_FRAME>TEME</REF_FRAME><TIME_SYSTEM>UTC</TIME_SYSTEM><MEAN_ELEMENT_THEORY>SGP4</MEAN_ELEMENT_THEORY></metadata><data><meanElements><EPOCH>2024-09-05T19:14:46.815936</EPOCH><MEAN_MOTION>14.36430040</MEAN_MOTION><ECCENTRICITY>.0002578</ECCENTRICITY><INCLINATION>44.9936</INCLINATION><RA_OF_ASC_NODE>84.5739</RA_OF_ASC_NODE><ARG_OF_PERICENTER>265.0399</ARG_OF_PERICENTER><MEAN_ANOMALY>166.9162</MEAN_ANOMALY></meanElements><tleParameters><EPHEMERIS_TYPE>0</EPHEMERIS_TYPE><CLASSIFICATION_TYPE>U</CLASSIFICATION_TYPE><NORAD_CAT_ID>25415</NORAD_CAT_ID><ELEMENT_SET_NO>999</ELEMENT_SET_NO><REV_AT_EPOCH>36348</REV_AT_EPOCH><BSTAR>.1909E-2</BSTAR><MEAN_MOTION_DOT>.5509E-4</MEAN_MOTION_DOT><MEAN_MOTION_DDOT>0</MEAN_MOTION_DDOT></tleParameters></data></segment></body></omm>

</ndm>
