ORBCOMM FM05            
1 25117U 97084F   24249.43566151  .00006280  00000+0  18776-2 0  9992
2 25117  45.0145 293.0964 0004495 256.7628 103.2722 14.43540678399424
ORBCOMM FM06            
1 25118U 97084G   24249.54872726  .00006650  00000+0  19810-2 0  9994
2 25118  45.0137 292.6425 0003939 267.8181 208.3147 14.43651246400359
ORBCOMM FM07            
1 25119U 97084H   24249.59465671  .00006130  00000+0  18332-2 0  9998
2 25119  45.0134 293.0413 0004906 248.5660 111.4668 14.43548808400375
ORBCOMM FM03            
1 25158U 98007B   24249.81945338  .00004730  00000+0  17579-2 0  9991
2 25158 107.9723 272.0357 0045810  23.6708 336.6525 14.32807794383427
ORBCOMM FM04            
1 25159U 98007C   24249.85572706  .00004843  00000+0  17928-2 0  9994
2 25159 107.9707 275.1316 0041453  20.9726 339.3102 14.33078237383578
ORBCOMM FM18            
1 25414U 98046B   24249.80818373  .00005654  00000+0  19514-2 0  9993
2 25414  44.9921  82.9721 0003665 278.4178  81.6253 14.36596988363492
ORBCOMM FM19            
1 25415U 98046C   24249.80193074  .00005509  00000+0  19090-2 0  9996
2 25415  44.9936  84.5739 0002578 265.0399 166.9162 14.36430040363486
